{"type": "FeatureCollection", "features": [ {"type": "Feature", "properties": {"norad_id": 57401, "name": "TIANMU-1 09", "group": "weather", "lat": -60.65517776388975, "lon": -143.75662586411855, "alt_km": 492.1810651756887, "timestamp": "2025-12-26T12:57:38.909493+00:00", "meta": {"OBJECT_NAME": "TIANMU-1 09", "OBJECT_ID": "2023-101C", "EPOCH": "2025-12-26T07:11:36.337632", "MEAN_MOTION": 15.28281169, "ECCENTRICITY": 0.00061344, "INCLINATION": 97.2802, "RA_OF_ASC_NODE": 49.1522, "ARG_OF_PERICENTER": 46.433, "MEAN_ANOMALY": 313.7419, "EPHEMERIS_TYPE": 0, "CLASSIFICATION_TYPE": "U", "NORAD_CAT_ID": 57401, "ELEMENT_SET_NO": 999, "REV_AT_EPOCH": 13522, "BSTAR": 0.00028469254, "MEAN_MOTION_DOT": 7.775e-05, "MEAN_MOTION_DDOT": 0}, "tle": {"line1": "1 57401U 23101C   25360.29972613  .00007775  00000+0  28469-3 0  9996", "line2": "2 57401  97.2802  49.1522 0006134  46.4330 313.7419 15.28281169135228"}}, "geometry": {"type": "Point", "coordinates": [-143.75662586411855, -60.65517776388975]}}, {"type": "Feature", "properties": {"norad_id": 57402, "name": "TIANMU-1 10", "group": "weather", "lat": 52.30319928414688, "lon": 40.71883709884426, "alt_km": 470.8467276472602, "timestamp": "2025-12-26T12:57:38.909512+00:00", "meta": {"OBJECT_NAME": "TIANMU-1 10", "OBJECT_ID": "2023-101D", "EPOCH": "2025-12-26T06:26:41.207136", "MEAN_MOTION": 15.28272967, "ECCENTRICITY": 0.00078438, "INCLINATION": 97.2882, "RA_OF_ASC_NODE": 49.9859, "ARG_OF_PERICENTER": 43.6601, "MEAN_ANOMALY": 316.5259, "EPHEMERIS_TYPE": 0, "CLASSIFICATION_TYPE": "U", "NORAD_CAT_ID": 57402, "ELEMENT_SET_NO": 999, "REV_AT_EPOCH": 13521, "BSTAR": 0.00027470797, "MEAN_MOTION_DOT": 7.5e-05, "MEAN_MOTION_DDOT": 0}, "tle": {"line1": "1 57402U 23101D   25360.26853249  .00007500  00000+0  27471-3 0  9995", "line2": "2 57402  97.2882  49.9859 0007843  43.6601 316.5259 15.28272967135214"}}, "geometry": {"type": "Point", "coordinates": [40.71883709884426, 52.30319928414688]}}, {"type": "Feature", "properties": {"norad_id": 57490, "name": "FENGYUN 3F", "group": "weather", "lat": -17.484371149853608, "lon": 71.37629269958431, "alt_km": 831.0214108403916, "timestamp": "2025-12-26T12:57:38.909529+00:00", "meta": {"OBJECT_NAME": "FENGYUN 3F", "OBJECT_ID": "2023-111A", "EPOCH": "2025-12-26T06:16:44.722272", "MEAN_MOTION": 14.19897093, "ECCENTRICITY": 8.53e-05, "INCLINATION": 98.7065, "RA_OF_ASC_NODE": 68.3358, "ARG_OF_PERICENTER": 118.1185, "MEAN_ANOMALY": 242.0077, "EPHEMERIS_TYPE": 0, "CLASSIFICATION_TYPE": "U", "NORAD_CAT_ID": 57490, "ELEMENT_SET_NO": 999, "REV_AT_EPOCH": 12432, "BSTAR": 5.7853491e-05, "MEAN_MOTION_DOT": 7.9e-07, "MEAN_MOTION_DDOT": 0}, "tle": {"line1": "1 57490U 23111A   25360.26162873  .00000079  00000+0  57853-4 0  9991", "line2": "2 57490  98.7065  68.3358 0000853 118.1185 242.0077 14.19897093124321"}}, "geometry": {"type": "Point", "coordinates": [71.37629269958431, -17.484371149853608]}}, {"type": "Feature", "properties": {"norad_id": 58584, "name": "ARKTIKA-M 2", "group": "weather", "lat": 62.99043623486748, "lon": -88.83581799571142, "alt_km": 37961.14069795851, "timestamp": "2025-12-26T12:57:38.909551+00:00", "meta": {"OBJECT_NAME": "ARKTIKA-M 2", "OBJECT_ID": "2023-198A", "EPOCH": "2025-12-25T18:56:09.299328", "MEAN_MOTION": 2.00602256, "ECCENTRICITY": 0.686608, "INCLINATION": 63.2255, "RA_OF_ASC_NODE": 173.4714, "ARG_OF_PERICENTER": 268.0516, "MEAN_ANOMALY": 18.8422, "EPHEMERIS_TYPE": 0, "CLASSIFICATION_TYPE": "U", "NORAD_CAT_ID": 58584, "ELEMENT_SET_NO": 999, "REV_AT_EPOCH": 1484, "BSTAR": 0, "MEAN_MOTION_DOT": 2.31e-06, "MEAN_MOTION_DDOT": 0}, "tle": {"line1": "1 58584U 23198A   25359.78899652  .00000231  00000+0  00000+0 0  9995", "line2": "2 58584  63.2255 173.4714 6866080 268.0516  18.8422  2.00602256 14849"}}, "geometry": {"type": "Point", "coordinates": [-88.83581799571142, 62.99043623486748]}}, {"type": "Feature", "properties": {"norad_id": 58645, "name": "TIANMU-1 11", "group": "weather", "lat": 58.05091837083631, "lon": 7.958748792129223, "alt_km": 491.0257061019447, "timestamp": "2025-12-26T12:57:38.909569+00:00", "meta": {"OBJECT_NAME": "TIANMU-1 11", "OBJECT_ID": "2023-205A", "EPOCH": "2025-12-26T07:58:42.167136", "MEAN_MOTION": 15.24762225, "ECCENTRICITY": 0.00075832, "INCLINATION": 97.36, "RA_OF_ASC_NODE": 19.7169, "ARG_OF_PERICENTER": 252.0345, "MEAN_ANOMALY": 108.0067, "EPHEMERIS_TYPE": 0, "CLASSIFICATION_TYPE": "U", "NORAD_CAT_ID": 58645, "ELEMENT_SET_NO": 999, "REV_AT_EPOCH": 11116, "BSTAR": 0.00026544614, "MEAN_MOTION_DOT": 6.511e-05, "MEAN_MOTION_DDOT": 0}, "tle": {"line1": "1 58645U 23205A   25360.33243249  .00006511  00000+0  26545-3 0  9993", "line2": "2 58645  97.3600  19.7169 0007583 252.0345 108.0067 15.24762225111160"}}, "geometry": {"type": "Point", "coordinates": [7.958748792129223, 58.05091837083631]}}, {"type": "Feature", "properties": {"norad_id": 58646, "name": "TIANMU-1 12", "group": "weather", "lat": -81.33535492154704, "lon": 141.72124654423592, "alt_km": 495.8415273351138, "timestamp": "2025-12-26T12:57:38.909586+00:00", "meta": {"OBJECT_NAME": "TIANMU-1 12", "OBJECT_ID": "2023-205B", "EPOCH": "2025-12-26T05:29:58.007904", "MEAN_MOTION": 15.24647838, "ECCENTRICITY": 0.00060665, "INCLINATION": 97.3587, "RA_OF_ASC_NODE": 19.4164, "ARG_OF_PERICENTER": 230.1779, "MEAN_ANOMALY": 129.8925, "EPHEMERIS_TYPE": 0, "CLASSIFICATION_TYPE": "U", "NORAD_CAT_ID": 58646, "ELEMENT_SET_NO": 999, "REV_AT_EPOCH": 11113, "BSTAR": 0.0002584134, "MEAN_MOTION_DOT": 6.313e-05, "MEAN_MOTION_DDOT": 0}, "tle": {"line1": "1 58646U 23205B   25360.22914361  .00006313  00000+0  25841-3 0  9990", "line2": "2 58646  97.3587  19.4164 0006066 230.1779 129.8925 15.24647838111133"}}, "geometry": {"type": "Point", "coordinates": [141.72124654423592, -81.33535492154704]}}, {"type": "Feature", "properties": {"norad_id": 58647, "name": "TIANMU-1 13", "group": "weather", "lat": 80.1399492337063, "lon": -28.129884795342498, "alt_km": 486.923603069672, "timestamp": "2025-12-26T12:57:38.909602+00:00", "meta": {"OBJECT_NAME": "TIANMU-1 13", "OBJECT_ID": "2023-205C", "EPOCH": "2025-12-26T07:52:13.950336", "MEAN_MOTION": 15.2469322, "ECCENTRICITY": 0.00067638, "INCLINATION": 97.3615, "RA_OF_ASC_NODE": 19.7203, "ARG_OF_PERICENTER": 208.3107, "MEAN_ANOMALY": 151.7764, "EPHEMERIS_TYPE": 0, "CLASSIFICATION_TYPE": "U", "NORAD_CAT_ID": 58647, "ELEMENT_SET_NO": 999, "REV_AT_EPOCH": 11114, "BSTAR": 0.00027356404, "MEAN_MOTION_DOT": 6.698e-05, "MEAN_MOTION_DDOT": 0}, "tle": {"line1": "1 58647U 23205C   25360.32793924  .00006698  00000+0  27356-3 0  9991", "line2": "2 58647  97.3615  19.7203 0006763 208.3107 151.7764 15.24693220111141"}}, "geometry": {"type": "Point", "coordinates": [-28.129884795342498, 80.1399492337063]}}, {"type": "Feature", "properties": {"norad_id": 58648, "name": "TIANMU-1 14", "group": "weather", "lat": 6.169056972003877, "lon": -159.93532531735318, "alt_km": 490.0810922252049, "timestamp": "2025-12-26T12:57:38.909618+00:00", "meta": {"OBJECT_NAME": "TIANMU-1 14", "OBJECT_ID": "2023-205D", "EPOCH": "2025-12-26T05:54:02.246976", "MEAN_MOTION": 15.24674683, "ECCENTRICITY": 0.00074546, "INCLINATION": 97.3547, "RA_OF_ASC_NODE": 18.9759, "ARG_OF_PERICENTER": 214.6531, "MEAN_ANOMALY": 145.4222, "EPHEMERIS_TYPE": 0, "CLASSIFICATION_TYPE": "U", "NORAD_CAT_ID": 58648, "ELEMENT_SET_NO": 999, "REV_AT_EPOCH": 11113, "BSTAR": 0.00025263224, "MEAN_MOTION_DOT": 6.177e-05, "MEAN_MOTION_DDOT": 0}, "tle": {"line1": "1 58648U 23205D   25360.24585934  .00006177  00000+0  25263-3 0  9990", "line2": "2 58648  97.3547  18.9759 0007454 214.6531 145.4222 15.24674683111132"}}, "geometry": {"type": "Point", "coordinates": [-159.93532531735318, 6.169056972003877]}}, {"type": "Feature", "properties": {"norad_id": 58660, "name": "TIANMU-1 19", "group": "weather", "lat": -55.805445811432406, "lon": -79.53466883164909, "alt_km": 486.07313582817187, "timestamp": "2025-12-26T12:57:38.909634+00:00", "meta": {"OBJECT_NAME": "TIANMU-1 19", "OBJECT_ID": "2023-208A", "EPOCH": "2025-12-26T07:12:51.956640", "MEAN_MOTION": 15.28097626, "ECCENTRICITY": 0.00048766, "INCLINATION": 97.4385, "RA_OF_ASC_NODE": 111.3127, "ARG_OF_PERICENTER": 195.8962, "MEAN_ANOMALY": 164.2126, "EPHEMERIS_TYPE": 0, "CLASSIFICATION_TYPE": "U", "NORAD_CAT_ID": 58660, "ELEMENT_SET_NO": 999, "REV_AT_EPOCH": 11089, "BSTAR": 0.00035312461, "MEAN_MOTION_DOT": 9.605e-05, "MEAN_MOTION_DDOT": 0}, "tle": {"line1": "1 58660U 23208A   25360.30060135  .00009605  00000+0  35312-3 0  9990", "line2": "2 58660  97.4385 111.3127 0004876 195.8962 164.2126 15.28097626110891"}}, "geometry": {"type": "Point", "coordinates": [-79.53466883164909, -55.805445811432406]}}, {"type": "Feature", "properties": {"norad_id": 58661, "name": "TIANMU-1 20", "group": "weather", "lat": 9.520128595734802, "lon": 110.75839741955585, "alt_km": 484.161564753359, "timestamp": "2025-12-26T12:57:38.909650+00:00", "meta": {"OBJECT_NAME": "TIANMU-1 20", "OBJECT_ID": "2023-208B", "EPOCH": "2025-12-26T06:38:14.696736", "MEAN_MOTION": 15.29286757, "ECCENTRICITY": 0.0006903, "INCLINATION": 97.4324, "RA_OF_ASC_NODE": 111.7496, "ARG_OF_PERICENTER": 210.3441, "MEAN_ANOMALY": 149.7401, "EPHEMERIS_TYPE": 0, "CLASSIFICATION_TYPE": "U", "NORAD_CAT_ID": 58661, "ELEMENT_SET_NO": 999, "REV_AT_EPOCH": 11096, "BSTAR": 0.00035021159, "MEAN_MOTION_DOT": 9.883e-05, "MEAN_MOTION_DDOT": 0}, "tle": {"line1": "1 58661U 23208B   25360.27655899  .00009883  00000+0  35021-3 0  9999", "line2": "2 58661  97.4324 111.7496 0006903 210.3441 149.7401 15.29286757110964"}}, "geometry": {"type": "Point", "coordinates": [110.75839741955585, 9.520128595734802]}}]}